NIMIQ 2                 
1 27632U 02062A   25288.89191818 -.00000077  00000+0  00000+0 0  9993
2 27632   8.8790  59.4119 0005871 151.6028  25.5707  1.00272542 41731
ANIK F2                 
1 28378U 04027A   25288.89157152 -.00000061  00000+0  00000+0 0  9990
2 28378   2.6522  82.7040 0003155  74.5471  77.2872  1.00271952 38810
ANIK F1R                
1 28868U 05036A   25288.60689380 -.00000086  00000+0  00000+0 0  9994
2 28868   3.6837  79.5944 0002091 103.7112 312.2775  1.00272160 44000
ANIK F3                 
1 31102U 07009A   25288.89001150 -.00000015  00000+0  00000+0 0  9997
2 31102   0.5624  86.6652 0002788 123.4911  16.2367  1.00273357 44118
NIMIQ 4                 
1 33373U 08044A   25288.89737821 -.00000234  00000+0  00000+0 0  9993
2 33373   0.0273 260.6574 0001881 309.8739  55.2171  1.00269488 62535
TELSTAR 11N             
1 34111U 09009A   25288.83480458  .00000000  00000+0  00000+0 0  9991
2 34111   0.0188 203.1098 0002492 349.5159  94.9480  1.00267642 43790
TERRESTAR-1             
1 35496U 09035A   25288.89157152 -.00000067  00000+0  00000+0 0  9999
2 35496   4.9870  48.7475 0002384 151.4941  34.3854  1.00271793 59689
NIMIQ 5                 
1 35873U 09050A   25288.89919822 -.00000271  00000+0  00000+0 0  9992
2 35873   0.0149 156.8373 0003168  64.1650  54.6993  1.00271417 58894
SKYTERRA 1              
1 37218U 10061A   25288.89347818 -.00000128  00000+0  00000+0 0  9992
2 37218   4.6042  50.8307 0005052 182.2110  11.9645  1.00271617 54740
TELSTAR 14R             
1 37602U 11021A   25288.90110488 -.00000294  00000+0  00000+0 0  9993
2 37602   0.0026 114.1759 0000904 160.3317  11.5882  1.00271827 53382
NIMIQ 6                 
1 38342U 12026A   25288.89555819 -.00000188  00000+0  00000+0 0  9992
2 38342   0.0475  59.6056 0002945 149.8360  46.5437  1.00271145 47966
ANIK G1                 
1 39127U 13014A   25288.60689380 -.00000088  00000+0  00000+0 0  9991
2 39127   0.0185 117.9525 0003445 117.3658 260.2566  1.00271339 45805
TELSTAR 12V             
1 41036U 15068A   25288.91063825 -.00000133  00000+0  00000+0 0  9999
2 41036   0.0174 257.0018 0002467 314.0382 126.4954  1.00271893 36170
VIASAT-2                
1 42740U 17029A   25288.89971822 -.00000279  00000+0  00000+0 0  9994
2 42740   0.0168 258.7630 0000450 336.0491  43.8710  1.00271827 30756
LEO 1 (LEO VANTAGE 1)   
1 43113U 18004C   25288.92998408  .00003963  00000+0  28042-3 0  9998
2 43113  99.2570 170.4953 0358309 108.0769 255.9803 14.65831809401679
TELSTAR 19V             
1 43562U 18059A   25288.90110488 -.00000294  00000+0  00000+0 0  9993
2 43562   0.0180 193.5348 0002642 339.3984 113.1426  1.00270033 26694
TELSTAR 18V             
1 43611U 18069A   25288.94097174 -.00000308  00000+0  00000+0 0  9995
2 43611   0.0180 258.6234 0002035 311.4165 291.4462  1.00270571 26185
AMOS-17                 
1 44479U 19050A   25288.91865304  .00000000  00000+0  00000+0 0  9992
2 44479   0.0099 200.7206 0002121 353.2901 178.3713  1.00269574 22732